OBJECT_NAME,OBJECT_ID,EPOCH,MEAN_MOTION,ECCENTRICITY,INCLINATION,RA_OF_ASC_NODE,ARG_OF_PERICENTER,MEAN_ANOMALY,EPHEMERIS_TYPE,CLASSIFICATION_TYPE,NORAD_CAT_ID,ELEMENT_SET_NO,REV_AT_EPOCH,BSTAR,MEAN_MOTION_DOT,MEAN_MOTION_DDOT
STARLINK-33582,2025-015AB,2025-04-20T18:42:24.210432,15.30184814,.0001131,53.1614,22.2339,86.4108,273.7022,0,U,62783,999,1497,.3072E-4,.55E-5,0
STARLINK-33581,2025-015AC,2025-04-20T17:52:24.870720,15.30193436,.0001285,53.1605,22.7303,83.4100,276.7047,0,U,62784,999,1503,.89137E-4,.2281E-4,0
STARLINK-32883,2025-018A,2025-04-20T18:14:15.181152,15.39614033,.000107,53.1623,12.6136,75.5608,284.5515,0,U,62806,999,1460,.14234E-4,.17E-5,0
STARLINK-32886,2025-018B,2025-04-19T04:03:59.306688,15.39612129,.0001218,53.1609,19.7484,87.4576,272.6568,0,U,62807,999,1345,.3436E-4,.975E-5,0
STARLINK-32848,2025-018C,2025-04-20T22:00:01.999584,15.39599100,.0000806,53.1599,11.3637,82.2100,326.8159,0,U,62808,999,585,.23951E-3,.9186E-4,0
STARLINK-32787,2025-018D,2025-04-19T16:00:01.999584,15.39580084,.0001061,53.1589,17.5103,100.0304,86.2356,0,U,62809,999,1446,.15591E-2,.62393E-3,0
STARLINK-32851,2025-018E,2025-04-20T00:45:27.722304,15.39671195,.0001138,53.1601,15.8880,79.7437,280.3696,0,U,62810,999,1357,.10711E-2,.42756E-3,0
STARLINK-32847,2025-018F,2025-04-20T01:19:14.030400,15.39620533,.0001087,53.1618,15.3206,92.4465,267.6665,0,U,62811,999,1358,-.42116E-5,-.568E-5,0
STARLINK-32837,2025-018G,2025-04-20T18:00:52.747200,15.39610780,.000148,53.1618,12.5605,64.0038,296.1119,0,U,62812,999,1369,.48565E-4,.1543E-4,0
STARLINK-32855,2025-018H,2025-04-19T17:51:54.515808,15.39603986,.0001269,53.1613,16.9402,62.0164,298.0969,0,U,62813,999,1353,.16141E-3,.6059E-4,0
STARLINK-32843,2025-018J,2025-04-19T18:11:58.845408,15.39611450,.0001046,53.1611,17.0280,62.2443,297.8668,0,U,62814,999,1444,.17165E-3,.647E-4,0
STARLINK-32845,2025-018K,2025-04-20T17:20:43.668096,15.39642828,.0001907,53.1607,12.3855,73.5306,286.5908,0,U,62815,999,1368,.18159E-3,.6876E-4,0
STARLINK-32854,2025-018L,2025-04-20T18:07:33.008160,15.39631413,.0001558,53.1596,12.5883,62.7794,297.3369,0,U,62816,999,1368,.33145E-4,.927E-5,0
STARLINK-32824,2025-018M,2025-04-20T16:47:18.884832,15.39624899,.0001164,53.1613,12.2311,112.9560,247.1568,0,U,62817,999,1463,.20673E-4,.428E-5,0
STARLINK-32853,2025-018N,2025-04-20T17:00:13.713984,15.39568424,.0002062,53.1624,12.2885,131.4978,228.6204,0,U,62818,999,1369,.33167E-3,.12867E-3,0
STARLINK-32856,2025-018P,2025-04-20T00:38:45.907008,15.39621246,.0000958,53.1597,15.8559,96.7771,263.3343,0,U,62819,999,1358,.14268E-3,.5312E-4,0
STARLINK-32844,2025-018Q,2025-04-20T16:46:49.609920,15.39615771,.0001603,53.1621,12.2264,124.8005,235.3150,0,U,62820,999,1369,.71336E-4,.2454E-4,0
STARLINK-32782,2025-018R,2025-04-20T17:13:34.288608,15.39627915,.0001103,53.1597,12.3453,103.1296,256.9832,0,U,62821,999,1369,.11828E-3,.4336E-4,0
STARLINK-32842,2025-018S,2025-04-20T17:33:38.137824,15.39622401,.0001141,53.1570,12.4327,45.6881,314.4217,0,U,62822,999,1369,-.11687E-5,-.446E-5,0
STARLINK-32823,2025-018T,2025-04-20T01:25:54.973920,15.39621856,.00012,53.1613,15.3464,67.3727,292.7405,0,U,62823,999,1359,.32322E-4,.894E-5,0
STARLINK-32852,2025-018U,2025-04-20T17:47:28.824576,15.39625561,.0001144,53.1621,12.4950,95.4990,264.6145,0,U,62824,999,1369,.44073E-4,.1364E-4,0
STARLINK-32825,2025-018V,2025-04-20T00:00:02.000160,15.39669215,.000122,53.1603,15.6823,72.8944,290.7029,0,U,62825,999,595,-.28276E-2,-.112035E-2,0
STARLINK-32704,2025-018W,2025-04-20T18:07:04.493568,15.39635793,.0001227,53.1605,12.5807,56.5581,303.5541,0,U,62826,999,1368,-.38109E-4,-.1924E-4,0
STARLINK-32838,2025-018X,2025-04-20T22:00:01.999584,15.80270349,.0000732,53.1282,348.8753,96.1481,147.0991,0,U,62827,999,1472,-.55746E-4,-.11379E-3,0
STARLINK-32727,2025-018Y,2025-04-20T00:32:11.342400,15.40333556,.0000785,53.1608,15.8295,174.5202,185.5811,0,U,62828,999,1452,-.57099E-2,-.227397E-2,0
STARLINK-11548 [DTC],2025-019A,2025-04-19T23:39:09.361728,15.70835596,.0002302,43.0027,96.8884,277.8626,82.1981,0,U,62829,999,1297,.72098E-5,.476E-5,0
STARLINK-11480 [DTC],2025-019B,2025-04-20T23:03:09.868032,15.70823349,.0002392,43.0042,91.3140,305.1727,54.8916,0,U,62830,999,1312,.40385E-6,-.398E-5,0
STARLINK-11559 [DTC],2025-019C,2025-04-20T03:58:44.052960,15.70828486,.0000842,42.9978,96.5445,301.5689,58.5096,0,U,62831,999,1299,.30867E-4,.3513E-4,0
STARLINK-11549 [DTC],2025-019D,2025-04-20T09:42:00.100512,15.70935849,.0001089,43.0006,94.8824,258.9400,101.1345,0,U,62832,999,1303,-.17587E-3,-.23043E-3,0
STARLINK-11554 [DTC],2025-019E,2025-04-20T00:40:19.054848,15.70828667,.0001404,43.0025,97.2281,270.2080,89.8627,0,U,62833,999,1297,-.22345E-5,-.735E-5,0
