STARLINK-33582          
1 62783U 25015AB  25110.77944688  .00000550  00000+0  30720-4 0  9996
2 62783  53.1614  22.2339 0001131  86.4108 273.7022 15.30184814 14971
STARLINK-33581          
1 62784U 25015AC  25110.74473230  .00002281  00000+0  89137-4 0  9993
2 62784  53.1605  22.7303 0001285  83.4100 276.7047 15.30193436 15035
STARLINK-32883          
1 62806U 25018A   25110.75989793  .00000170  00000+0  14234-4 0  9999
2 62806  53.1623  12.6136 0001070  75.5608 284.5515 15.39614033 14608
STARLINK-32886          
1 62807U 25018B   25109.16943642  .00000975  00000+0  34360-4 0  9991
2 62807  53.1609  19.7484 0001218  87.4576 272.6568 15.39612129 13459
STARLINK-32848          
1 62808U 25018C   25110.91668981  .00009186  00000+0  23951-3 0  9993
2 62808  53.1599  11.3637 0000806  82.2100 326.8159 15.39599100  5850
STARLINK-32787          
1 62809U 25018D   25109.66668981  .00062393  00000+0  15591-2 0  9993
2 62809  53.1589  17.5103 0001061 100.0304  86.2356 15.39580084 14469
STARLINK-32851          
1 62810U 25018E   25110.03157086  .00042756  00000+0  10711-2 0  9997
2 62810  53.1601  15.8880 0001138  79.7437 280.3696 15.39671195 13572
STARLINK-32847          
1 62811U 25018F   25110.05502350 -.00000568  00000+0 -42116-5 0  9992
2 62811  53.1618  15.3206 0001087  92.4465 267.6665 15.39620533 13589
STARLINK-32837          
1 62812U 25018G   25110.75061050  .00001543  00000+0  48565-4 0  9992
2 62812  53.1618  12.5605 0001480  64.0038 296.1119 15.39610780 13696
STARLINK-32855          
1 62813U 25018H   25109.74438097  .00006059  00000+0  16141-3 0  9990
2 62813  53.1613  16.9402 0001269  62.0164 298.0969 15.39603986 13535
STARLINK-32843          
1 62814U 25018J   25109.75831997  .00006470  00000+0  17165-3 0  9992
2 62814  53.1611  17.0280 0001046  62.2443 297.8668 15.39611450 14444
STARLINK-32845          
1 62815U 25018K   25110.72272764  .00006876  00000+0  18159-3 0  9997
2 62815  53.1607  12.3855 0001907  73.5306 286.5908 15.39642828 13685
STARLINK-32854          
1 62816U 25018L   25110.75524315  .00000927  00000+0  33145-4 0  9997
2 62816  53.1596  12.5883 0001558  62.7794 297.3369 15.39631413 13688
STARLINK-32824          
1 62817U 25018M   25110.69952413  .00000428  00000+0  20673-4 0  9993
2 62817  53.1613  12.2311 0001164 112.9560 247.1568 15.39624899 14634
STARLINK-32853          
1 62818U 25018N   25110.70849206  .00012867  00000+0  33167-3 0  9992
2 62818  53.1624  12.2885 0002062 131.4978 228.6204 15.39568424 13697
STARLINK-32856          
1 62819U 25018P   25110.02692022  .00005312  00000+0  14268-3 0  9998
2 62819  53.1597  15.8559 0000958  96.7771 263.3343 15.39621246 13580
STARLINK-32844          
1 62820U 25018Q   25110.69918530  .00002454  00000+0  71336-4 0  9992
2 62820  53.1621  12.2264 0001603 124.8005 235.3150 15.39615771 13698
STARLINK-32782          
1 62821U 25018R   25110.71775797  .00004336  00000+0  11828-3 0  9992
2 62821  53.1597  12.3453 0001103 103.1296 256.9832 15.39627915 13698
STARLINK-32842          
1 62822U 25018S   25110.73169141 -.00000446  00000+0 -11687-5 0  9990
2 62822  53.1570  12.4327 0001141  45.6881 314.4217 15.39622401 13695
STARLINK-32823          
1 62823U 25018T   25110.05966405  .00000894  00000+0  32322-4 0  9997
2 62823  53.1613  15.3464 0001200  67.3727 292.7405 15.39621856 13593
STARLINK-32852          
1 62824U 25018U   25110.74130584  .00001364  00000+0  44073-4 0  9994
2 62824  53.1621  12.4950 0001144  95.4990 264.6145 15.39625561 13699
STARLINK-32825          
1 62825U 25018V   25110.00002315 -.00112035  00000+0 -28276-2 0  9999
2 62825  53.1603  15.6823 0001220  72.8944 290.7029 15.39669215  5952
STARLINK-32704          
1 62826U 25018W   25110.75491312 -.00001924  00000+0 -38109-4 0  9993
2 62826  53.1605  12.5807 0001227  56.5581 303.5541 15.39635793 13681
STARLINK-32838          
1 62827U 25018X   25110.91668981 -.00011379  00000+0 -55746-4 0  9991
2 62827  53.1282 348.8753 0000732  96.1481 147.0991 15.80270349 14721
STARLINK-32727          
1 62828U 25018Y   25110.02235350 -.00227397  00000+0 -57099-2 0  9994
2 62828  53.1608  15.8295 0000785 174.5202 185.5811 15.40333556 14528
STARLINK-11548 [DTC]    
1 62829U 25019A   25109.98552502  .00000476  00000+0  72098-5 0  9994
2 62829  43.0027  96.8884 0002302 277.8626  82.1981 15.70835596 12970
STARLINK-11480 [DTC]    
1 62830U 25019B   25110.96053088 -.00000398  00000+0  40385-6 0  9990
2 62830  43.0042  91.3140 0002392 305.1727  54.8916 15.70823349 13125
STARLINK-11559 [DTC]    
1 62831U 25019C   25110.16578765  .00003513  00000+0  30867-4 0  9990
2 62831  42.9978  96.5445 0000842 301.5689  58.5096 15.70828486 12993
STARLINK-11549 [DTC]    
1 62832U 25019D   25110.40416783 -.00023043  00000+0 -17587-3 0  9994
2 62832  43.0006  94.8824 0001089 258.9400 101.1345 15.70935849 13030
STARLINK-11554 [DTC]    
1 62833U 25019E   25110.02799832 -.00000735  00000+0 -22345-5 0  9995
2 62833  43.0025  97.2281 0001404 270.2080  89.8627 15.70828667 12974
